STARLINK-31646          
1 59265U 24050M   25237.59982720 -.00000756  00000+0 -13417-4 0  9998
2 59265  53.1618  12.0009 0000725  85.8189 274.2894 15.30197723 80527
STARLINK-31648          
1 59266U 24050N   25237.64192006  .00000986  00000+0  45430-4 0  9998
2 59266  53.1618  11.5533 0001117  93.5292 266.5837 15.30192994 80538
STARLINK-31579          
1 59267U 24050P   25237.52500937  .00000640  00000+0  33724-4 0  9992
2 59267  53.1622  12.2441 0001255  75.9161 284.1979 15.30193495 80510
STARLINK-31627          
1 59268U 24050Q   25237.61248606 -.00000036  00000+0  10917-4 0  9994
2 59268  53.1635  12.0742 0001171 100.4864 259.6269 15.30192437 80523
STARLINK-31609          
1 59269U 24050R   25237.59665595  .00000564  00000+0  31158-4 0  9997
2 59269  53.1618  11.9797 0001121  80.1073 280.0055 15.30195464 80528
STARLINK-31616          
1 59270U 24050S   25237.60299225 -.00001177  00000+0 -27636-4 0  9993
2 59270  53.1625  12.0178 0001251  87.7851 272.3293 15.30191194 80528
STARLINK-31630          
1 59271U 24050T   25237.61087528  .00000664  00000+0  34543-4 0  9999
2 59271  53.1620 359.2753 0001089  73.9648 286.1473 15.30196139 80706
STARLINK-31623          
1 59272U 24050U   25237.62291493  .00004457  00000+0  15843-3 0  9994
2 59272  53.1628  11.4360 0001052  54.0705 306.0394 15.31043719 80531
STARLINK-31595          
1 59273U 24050V   25237.64508807  .00000784  00000+0  38601-4 0  9994
2 59273  53.1621  11.5892 0001136  78.0686 282.0442 15.30195316 80530
STARLINK-31463          
1 59296U 24056A   25237.35780314 -.00000205  00000+0  20554-5 0  9996
2 59296  43.0009 255.5356 0000948 275.7228  84.3516 15.27577971 81179
STARLINK-31487          
1 59297U 24056B   25237.08435386  .00001380  00000+0  59663-4 0  9999
2 59297  42.9999 261.2447 0001389 276.1191  83.9503 15.27581968 81201
STARLINK-31386          
1 59298U 24056C   25237.13175221 -.00000100  00000+0  59014-5 0  9996
2 59298  42.9984 260.7362 0001327 271.5266  88.5434 15.27575638 81098
STARLINK-31409          
1 59299U 24056D   25237.13529639 -.00000152  00000+0  39814-5 0  9996
2 59299  42.9995 253.8472 0001268 277.2213  82.8494 15.27574005 81297
STARLINK-31489          
1 59300U 24056E   25237.11633281 -.00000522  00000+0 -94501-5 0  9992
2 59300  43.0033 260.6231 0001062 274.1766  85.8964 15.27577451 81096
STARLINK-31502          
1 59301U 24056F   25237.50192402 -.00000966  00000+0 -25607-4 0  9993
2 59301  43.0024 251.4266 0001317 274.9663  85.1039 15.27572117 81236
STARLINK-31447          
1 59302U 24056G   25237.33047542  .00000302  00000+0  20505-4 0  9993
2 59302  43.0030 259.6546 0001741 279.0821  80.9833 15.27583848 81124
