[{"OBJECT_NAME":"STARLINK-31646","OBJECT_ID":"2024-050M","EPOCH":"2025-08-25T14:23:45.070080","MEAN_MOTION":15.30197723,"ECCENTRICITY":7.252e-5,"INCLINATION":53.1618,"RA_OF_ASC_NODE":12.0009,"ARG_OF_PERICENTER":85.8189,"MEAN_ANOMALY":274.2894,"EPHEMERIS_TYPE":0,"CLASSIFICATION_TYPE":"U","NORAD_CAT_ID":59265,"ELEMENT_SET_NO":999,"REV_AT_EPOCH":8052,"BSTAR":-1.3416781e-5,"MEAN_MOTION_DOT":-7.56e-6,"MEAN_MOTION_DDOT":0},{"OBJECT_NAME":"STARLINK-31648","OBJECT_ID":"2024-050N","EPOCH":"2025-08-25T15:24:21.893184","MEAN_MOTION":15.30192994,"ECCENTRICITY":0.00011179,"INCLINATION":53.1618,"RA_OF_ASC_NODE":11.5533,"ARG_OF_PERICENTER":93.5292,"MEAN_ANOMALY":266.5837,"EPHEMERIS_TYPE":0,"CLASSIFICATION_TYPE":"U","NORAD_CAT_ID":59266,"ELEMENT_SET_NO":999,"REV_AT_EPOCH":8053,"BSTAR":4.5429885e-5,"MEAN_MOTION_DOT":9.86e-6,"MEAN_MOTION_DDOT":0},{"OBJECT_NAME":"STARLINK-31579","OBJECT_ID":"2024-050P","EPOCH":"2025-08-25T12:36:00.809568","MEAN_MOTION":15.30193495,"ECCENTRICITY":0.00012555,"INCLINATION":53.1622,"RA_OF_ASC_NODE":12.2441,"ARG_OF_PERICENTER":75.9161,"MEAN_ANOMALY":284.1979,"EPHEMERIS_TYPE":0,"CLASSIFICATION_TYPE":"U","NORAD_CAT_ID":59267,"ELEMENT_SET_NO":999,"REV_AT_EPOCH":8051,"BSTAR":3.3723831e-5,"MEAN_MOTION_DOT":6.4e-6,"MEAN_MOTION_DDOT":0},{"OBJECT_NAME":"STARLINK-31627","OBJECT_ID":"2024-050Q","EPOCH":"2025-08-25T14:41:58.795584","MEAN_MOTION":15.30192437,"ECCENTRICITY":0.00011712,"INCLINATION":53.1635,"RA_OF_ASC_NODE":12.0742,"ARG_OF_PERICENTER":100.4864,"MEAN_ANOMALY":259.6269,"EPHEMERIS_TYPE":0,"CLASSIFICATION_TYPE":"U","NORAD_CAT_ID":59268,"ELEMENT_SET_NO":999,"REV_AT_EPOCH":8052,"BSTAR":1.0916665e-5,"MEAN_MOTION_DOT":-3.6e-7,"MEAN_MOTION_DDOT":0},{"OBJECT_NAME":"STARLINK-31609","OBJECT_ID":"2024-050R","EPOCH":"2025-08-25T14:19:11.074080","MEAN_MOTION":15.30195464,"ECCENTRICITY":0.00011217,"INCLINATION":53.1618,"RA_OF_ASC_NODE":11.9797,"ARG_OF_PERICENTER":80.1073,"MEAN_ANOMALY":280.0055,"EPHEMERIS_TYPE":0,"CLASSIFICATION_TYPE":"U","NORAD_CAT_ID":59269,"ELEMENT_SET_NO":999,"REV_AT_EPOCH":8052,"BSTAR":3.1158444e-5,"MEAN_MOTION_DOT":5.64e-6,"MEAN_MOTION_DDOT":0},{"OBJECT_NAME":"STARLINK-31616","OBJECT_ID":"2024-050S","EPOCH":"2025-08-25T14:28:18.530400","MEAN_MOTION":15.30191194,"ECCENTRICITY":0.00012519,"INCLINATION":53.1625,"RA_OF_ASC_NODE":12.0178,"ARG_OF_PERICENTER":87.7851,"MEAN_ANOMALY":272.3293,"EPHEMERIS_TYPE":0,"CLASSIFICATION_TYPE":"U","NORAD_CAT_ID":59270,"ELEMENT_SET_NO":999,"REV_AT_EPOCH":8052,"BSTAR":-2.7636312e-5,"MEAN_MOTION_DOT":-1.177e-5,"MEAN_MOTION_DDOT":0},{"OBJECT_NAME":"STARLINK-31630","OBJECT_ID":"2024-050T","EPOCH":"2025-08-25T14:39:39.624192","MEAN_MOTION":15.30196139,"ECCENTRICITY":0.00010894,"INCLINATION":53.162,"RA_OF_ASC_NODE":359.2753,"ARG_OF_PERICENTER":73.9648,"MEAN_ANOMALY":286.1473,"EPHEMERIS_TYPE":0,"CLASSIFICATION_TYPE":"U","NORAD_CAT_ID":59271,"ELEMENT_SET_NO":999,"REV_AT_EPOCH":8070,"BSTAR":3.454271e-5,"MEAN_MOTION_DOT":6.64e-6,"MEAN_MOTION_DDOT":0},{"OBJECT_NAME":"STARLINK-31623","OBJECT_ID":"2024-050U","EPOCH":"2025-08-25T14:56:59.849952","MEAN_MOTION":15.31043719,"ECCENTRICITY":0.00010522,"INCLINATION":53.1628,"RA_OF_ASC_NODE":11.436,"ARG_OF_PERICENTER":54.0705,"MEAN_ANOMALY":306.0394,"EPHEMERIS_TYPE":0,"CLASSIFICATION_TYPE":"U","NORAD_CAT_ID":59272,"ELEMENT_SET_NO":999,"REV_AT_EPOCH":8053,"BSTAR":0.00015843315,"MEAN_MOTION_DOT":4.457e-5,"MEAN_MOTION_DDOT":0},{"OBJECT_NAME":"STARLINK-31595","OBJECT_ID":"2024-050V","EPOCH":"2025-08-25T15:28:55.609248","MEAN_MOTION":15.30195316,"ECCENTRICITY":0.0001136,"INCLINATION":53.1621,"RA_OF_ASC_NODE":11.5892,"ARG_OF_PERICENTER":78.0686,"MEAN_ANOMALY":282.0442,"EPHEMERIS_TYPE":0,"CLASSIFICATION_TYPE":"U","NORAD_CAT_ID":59273,"ELEMENT_SET_NO":999,"REV_AT_EPOCH":8053,"BSTAR":3.8600546e-5,"MEAN_MOTION_DOT":7.84e-6,"MEAN_MOTION_DDOT":0},{"OBJECT_NAME":"STARLINK-31463","OBJECT_ID":"2024-056A","EPOCH":"2025-08-25T08:35:14.191296","MEAN_MOTION":15.27577971,"ECCENTRICITY":9.482e-5,"INCLINATION":43.0009,"RA_OF_ASC_NODE":255.5356,"ARG_OF_PERICENTER":275.7228,"MEAN_ANOMALY":84.3516,"EPHEMERIS_TYPE":0,"CLASSIFICATION_TYPE":"U","NORAD_CAT_ID":59296,"ELEMENT_SET_NO":999,"REV_AT_EPOCH":8117,"BSTAR":2.055352e-6,"MEAN_MOTION_DOT":-2.05e-6,"MEAN_MOTION_DDOT":0},{"OBJECT_NAME":"STARLINK-31487","OBJECT_ID":"2024-056B","EPOCH":"2025-08-25T02:01:28.173504","MEAN_MOTION":15.27581968,"ECCENTRICITY":0.00013892,"INCLINATION":42.9999,"RA_OF_ASC_NODE":261.2447,"ARG_OF_PERICENTER":276.1191,"MEAN_ANOMALY":83.9503,"EPHEMERIS_TYPE":0,"CLASSIFICATION_TYPE":"U","NORAD_CAT_ID":59297,"ELEMENT_SET_NO":999,"REV_AT_EPOCH":8120,"BSTAR":5.9662924e-5,"MEAN_MOTION_DOT":1.38e-5,"MEAN_MOTION_DDOT":0},{"OBJECT_NAME":"STARLINK-31386","OBJECT_ID":"2024-056C","EPOCH":"2025-08-25T03:09:43.390944","MEAN_MOTION":15.27575638,"ECCENTRICITY":0.00013277,"INCLINATION":42.9984,"RA_OF_ASC_NODE":260.7362,"ARG_OF_PERICENTER":271.5266,"MEAN_ANOMALY":88.5434,"EPHEMERIS_TYPE":0,"CLASSIFICATION_TYPE":"U","NORAD_CAT_ID":59298,"ELEMENT_SET_NO":999,"REV_AT_EPOCH":8109,"BSTAR":5.901382e-6,"MEAN_MOTION_DOT":-1.0e-6,"MEAN_MOTION_DDOT":0},{"OBJECT_NAME":"STARLINK-31409","OBJECT_ID":"2024-056D","EPOCH":"2025-08-25T03:14:49.608096","MEAN_MOTION":15.27574005,"ECCENTRICITY":0.00012682,"INCLINATION":42.9995,"RA_OF_ASC_NODE":253.8472,"ARG_OF_PERICENTER":277.2213,"MEAN_ANOMALY":82.8494,"EPHEMERIS_TYPE":0,"CLASSIFICATION_TYPE":"U","NORAD_CAT_ID":59299,"ELEMENT_SET_NO":999,"REV_AT_EPOCH":8129,"BSTAR":3.981387e-6,"MEAN_MOTION_DOT":-1.52e-6,"MEAN_MOTION_DDOT":0},{"OBJECT_NAME":"STARLINK-31489","OBJECT_ID":"2024-056E","EPOCH":"2025-08-25T02:47:31.154784","MEAN_MOTION":15.27577451,"ECCENTRICITY":0.00010621,"INCLINATION":43.0033,"RA_OF_ASC_NODE":260.6231,"ARG_OF_PERICENTER":274.1766,"MEAN_ANOMALY":85.8964,"EPHEMERIS_TYPE":0,"CLASSIFICATION_TYPE":"U","NORAD_CAT_ID":59300,"ELEMENT_SET_NO":999,"REV_AT_EPOCH":8109,"BSTAR":-9.450071e-6,"MEAN_MOTION_DOT":-5.22e-6,"MEAN_MOTION_DDOT":0},{"OBJECT_NAME":"STARLINK-31502","OBJECT_ID":"2024-056F","EPOCH":"2025-08-25T12:02:46.235328","MEAN_MOTION":15.27572117,"ECCENTRICITY":0.0001317,"INCLINATION":43.0024,"RA_OF_ASC_NODE":251.4266,"ARG_OF_PERICENTER":274.9663,"MEAN_ANOMALY":85.1039,"EPHEMERIS_TYPE":0,"CLASSIFICATION_TYPE":"U","NORAD_CAT_ID":59301,"ELEMENT_SET_NO":999,"REV_AT_EPOCH":8123,"BSTAR":-2.5607352e-5,"MEAN_MOTION_DOT":-9.66e-6,"MEAN_MOTION_DDOT":0},{"OBJECT_NAME":"STARLINK-31447","OBJECT_ID":"2024-056G","EPOCH":"2025-08-25T07:55:53.076288","MEAN_MOTION":15.27583848,"ECCENTRICITY":0.00017418,"INCLINATION":43.003,"RA_OF_ASC_NODE":259.6546,"ARG_OF_PERICENTER":279.0821,"MEAN_ANOMALY":80.9833,"EPHEMERIS_TYPE":0,"CLASSIFICATION_TYPE":"U","NORAD_CAT_ID":59302,"ELEMENT_SET_NO":999,"REV_AT_EPOCH":8112,"BSTAR":2.0504537e-5,"MEAN_MOTION_DOT":3.02e-6,"MEAN_MOTION_DDOT":0}]
